{"type": "FeatureCollection", "features": [ {"type": "Feature", "properties": {"norad_id": 37867, "name": "COSMOS 2476 (744)", "group": "gnss", "lat": 31.848496212209508, "lon": 95.43092230599237, "alt_km": 19185.109618236547, "timestamp": "2025-12-25T20:42:38.932025+00:00", "meta": {"OBJECT_NAME": "COSMOS 2476 (744)", "OBJECT_ID": "2011-064A", "EPOCH": "2025-12-24T09:57:47.072160", "MEAN_MOTION": 2.13103925, "ECCENTRICITY": 0.00245084, "INCLINATION": 65.1679, "RA_OF_ASC_NODE": 78.7766, "ARG_OF_PERICENTER": 235.0068, "MEAN_ANOMALY": 129.7601, "EPHEMERIS_TYPE": 0, "CLASSIFICATION_TYPE": "U", "NORAD_CAT_ID": 37867, "ELEMENT_SET_NO": 999, "REV_AT_EPOCH": 11004, "BSTAR": 0, "MEAN_MOTION_DOT": 1e-08, "MEAN_MOTION_DDOT": 0}, "tle": {"line1": "1 37867U 11064A   25358.41512815  .00000001  00000+0  00000+0 0  9992", "line2": "2 37867  65.1679  78.7766 0024508 235.0068 129.7601  2.13103925110049"}}, "geometry": {"type": "Point", "coordinates": [95.43092230599237, 31.848496212209508]}}, {"type": "Feature", "properties": {"norad_id": 37868, "name": "COSMOS 2477 (745)", "group": "gnss", "lat": -32.51084417154338, "lon": -84.05010658420966, "alt_km": 19082.10982268135, "timestamp": "2025-12-25T20:42:38.932037+00:00", "meta": {"OBJECT_NAME": "COSMOS 2477 (745)", "OBJECT_ID": "2011-064B", "EPOCH": "2025-12-24T15:22:57.950400", "MEAN_MOTION": 2.13103036, "ECCENTRICITY": 0.00215718, "INCLINATION": 65.1748, "RA_OF_ASC_NODE": 78.8466, "ARG_OF_PERICENTER": 235.4688, "MEAN_ANOMALY": 123.4303, "EPHEMERIS_TYPE": 0, "CLASSIFICATION_TYPE": "U", "NORAD_CAT_ID": 37868, "ELEMENT_SET_NO": 999, "REV_AT_EPOCH": 11003, "BSTAR": 0, "MEAN_MOTION_DOT": 1e-08, "MEAN_MOTION_DDOT": 0}, "tle": {"line1": "1 37868U 11064B   25358.64094850  .00000001  00000+0  00000+0 0  9992", "line2": "2 37868  65.1748  78.8466 0021571 235.4688 123.4303  2.13103036110036"}}, "geometry": {"type": "Point", "coordinates": [-84.05010658420966, -32.51084417154338]}}, {"type": "Feature", "properties": {"norad_id": 37869, "name": "COSMOS 2475 (743)", "group": "gnss", "lat": 7.281314019630518, "lon": -104.54717648475449, "alt_km": 19114.250242440583, "timestamp": "2025-12-25T20:42:38.932049+00:00", "meta": {"OBJECT_NAME": "COSMOS 2475 (743)", "OBJECT_ID": "2011-064C", "EPOCH": "2025-12-25T05:57:40.330080", "MEAN_MOTION": 2.1310165, "ECCENTRICITY": 0.00267734, "INCLINATION": 65.1818, "RA_OF_ASC_NODE": 78.8463, "ARG_OF_PERICENTER": 249.2296, "MEAN_ANOMALY": 171.5586, "EPHEMERIS_TYPE": 0, "CLASSIFICATION_TYPE": "U", "NORAD_CAT_ID": 37869, "ELEMENT_SET_NO": 999, "REV_AT_EPOCH": 11006, "BSTAR": 0, "MEAN_MOTION_DOT": -1e-08, "MEAN_MOTION_DDOT": 0}, "tle": {"line1": "1 37869U 11064C   25359.24838345 -.00000001  00000+0  00000+0 0  9996", "line2": "2 37869  65.1818  78.8463 0026773 249.2296 171.5586  2.13101650110069"}}, "geometry": {"type": "Point", "coordinates": [-104.54717648475449, 7.281314019630518]}}, {"type": "Feature", "properties": {"norad_id": 37948, "name": "BEIDOU-2 IGSO-5 (C10)", "group": "gnss", "lat": -31.910538934866654, "lon": 127.76220916985126, "alt_km": 35324.21592655843, "timestamp": "2025-12-25T20:42:38.932062+00:00", "meta": {"OBJECT_NAME": "BEIDOU-2 IGSO-5 (C10)", "OBJECT_ID": "2011-073A", "EPOCH": "2025-12-24T17:40:34.414752", "MEAN_MOTION": 1.00288414, "ECCENTRICITY": 0.01097165, "INCLINATION": 47.9979, "RA_OF_ASC_NODE": 273.7118, "ARG_OF_PERICENTER": 222.1575, "MEAN_ANOMALY": 316.4289, "EPHEMERIS_TYPE": 0, "CLASSIFICATION_TYPE": "U", "NORAD_CAT_ID": 37948, "ELEMENT_SET_NO": 999, "REV_AT_EPOCH": 5138, "BSTAR": 0, "MEAN_MOTION_DOT": -1.39e-06, "MEAN_MOTION_DDOT": 0}, "tle": {"line1": "1 37948U 11073A   25358.73650943 -.00000139  00000+0  00000+0 0  9995", "line2": "2 37948  47.9979 273.7118 0109716 222.1575 316.4289  1.00288414 51383"}}, "geometry": {"type": "Point", "coordinates": [127.76220916985126, -31.910538934866654]}}, {"type": "Feature", "properties": {"norad_id": 37951, "name": "LUCH 5A (SDCM/PRN 140)", "group": "gnss", "lat": 5.778597858849243, "lon": -147.45352027521196, "alt_km": 35773.7695858745, "timestamp": "2025-12-25T20:42:38.932073+00:00", "meta": {"OBJECT_NAME": "LUCH 5A (SDCM/PRN 140)", "OBJECT_ID": "2011-074B", "EPOCH": "2025-12-24T22:27:17.315712", "MEAN_MOTION": 1.00268947, "ECCENTRICITY": 0.0005251, "INCLINATION": 8.3088, "RA_OF_ASC_NODE": 76.4049, "ARG_OF_PERICENTER": 192.019, "MEAN_ANOMALY": 329.1245, "EPHEMERIS_TYPE": 0, "CLASSIFICATION_TYPE": "U", "NORAD_CAT_ID": 37951, "ELEMENT_SET_NO": 999, "REV_AT_EPOCH": 5130, "BSTAR": 0, "MEAN_MOTION_DOT": -3.1e-07, "MEAN_MOTION_DDOT": 0}, "tle": {"line1": "1 37951U 11074B   25358.93561708 -.00000031  00000+0  00000+0 0  9993", "line2": "2 37951   8.3088  76.4049 0005251 192.0190 329.1245  1.00268947 51301"}}, "geometry": {"type": "Point", "coordinates": [-147.45352027521196, 5.778597858849243]}}, {"type": "Feature", "properties": {"norad_id": 38091, "name": "BEIDOU-2 G5 (C05)", "group": "gnss", "lat": 1.7463097692855596, "lon": 104.01082332453349, "alt_km": 35838.76037723008, "timestamp": "2025-12-25T20:42:38.932085+00:00", "meta": {"OBJECT_NAME": "BEIDOU-2 G5 (C05)", "OBJECT_ID": "2012-008A", "EPOCH": "2025-12-24T23:39:02.942208", "MEAN_MOTION": 1.00269891, "ECCENTRICITY": 0.00130967, "INCLINATION": 3.1377, "RA_OF_ASC_NODE": 70.6643, "ARG_OF_PERICENTER": 232.2116, "MEAN_ANOMALY": 204.3729, "EPHEMERIS_TYPE": 0, "CLASSIFICATION_TYPE": "U", "NORAD_CAT_ID": 38091, "ELEMENT_SET_NO": 999, "REV_AT_EPOCH": 5062, "BSTAR": 0, "MEAN_MOTION_DOT": 7.7e-07, "MEAN_MOTION_DDOT": 0}, "tle": {"line1": "1 38091U 12008A   25358.98545072  .00000077  00000+0  00000+0 0  9997", "line2": "2 38091   3.1377  70.6643 0013096 232.2116 204.3729  1.00269891 50622"}}, "geometry": {"type": "Point", "coordinates": [104.01082332453349, 1.7463097692855596]}}, {"type": "Feature", "properties": {"norad_id": 38250, "name": "BEIDOU-2 M3 (C11)", "group": "gnss", "lat": 53.04788738096657, "lon": 14.78236813307031, "alt_km": 21584.8720326772, "timestamp": "2025-12-25T20:42:38.932097+00:00", "meta": {"OBJECT_NAME": "BEIDOU-2 M3 (C11)", "OBJECT_ID": "2012-018A", "EPOCH": "2025-12-24T03:22:03.617760", "MEAN_MOTION": 1.86230154, "ECCENTRICITY": 0.00241099, "INCLINATION": 55.9106, "RA_OF_ASC_NODE": 310.7747, "ARG_OF_PERICENTER": 275.3713, "MEAN_ANOMALY": 84.3565, "EPHEMERIS_TYPE": 0, "CLASSIFICATION_TYPE": "U", "NORAD_CAT_ID": 38250, "ELEMENT_SET_NO": 999, "REV_AT_EPOCH": 9268, "BSTAR": 0, "MEAN_MOTION_DOT": -5.3e-07, "MEAN_MOTION_DDOT": 0}, "tle": {"line1": "1 38250U 12018A   25358.14031965 -.00000053  00000+0  00000+0 0  9999", "line2": "2 38250  55.9106 310.7747 0024109 275.3713  84.3565  1.86230154 92685"}}, "geometry": {"type": "Point", "coordinates": [14.78236813307031, 53.04788738096657]}}, {"type": "Feature", "properties": {"norad_id": 38251, "name": "BEIDOU-2 M4 (C12)", "group": "gnss", "lat": 45.60249730111109, "lon": 86.01692001264152, "alt_km": 21562.046930374425, "timestamp": "2025-12-25T20:42:38.932109+00:00", "meta": {"OBJECT_NAME": "BEIDOU-2 M4 (C12)", "OBJECT_ID": "2012-018B", "EPOCH": "2025-12-25T03:30:42.765120", "MEAN_MOTION": 1.86229477, "ECCENTRICITY": 0.0014906, "INCLINATION": 55.8105, "RA_OF_ASC_NODE": 309.9689, "ARG_OF_PERICENTER": 280.9074, "MEAN_ANOMALY": 78.9304, "EPHEMERIS_TYPE": 0, "CLASSIFICATION_TYPE": "U", "NORAD_CAT_ID": 38251, "ELEMENT_SET_NO": 999, "REV_AT_EPOCH": 9270, "BSTAR": 0, "MEAN_MOTION_DOT": -5.3e-07, "MEAN_MOTION_DDOT": 0}, "tle": {"line1": "1 38251U 12018B   25359.14632830 -.00000053  00000+0  00000+0 0  9999", "line2": "2 38251  55.8105 309.9689 0014906 280.9074  78.9304  1.86229477 92704"}}, "geometry": {"type": "Point", "coordinates": [86.01692001264152, 45.60249730111109]}}, {"type": "Feature", "properties": {"norad_id": 38652, "name": "SES-5 (EGNOS/PRN 136)", "group": "gnss", "lat": 0.06423805066189665, "lon": 50.26383748337693, "alt_km": 35792.66137509456, "timestamp": "2025-12-25T20:42:38.932121+00:00", "meta": {"OBJECT_NAME": "SES-5 (EGNOS/PRN 136)", "OBJECT_ID": "2012-036A", "EPOCH": "2025-12-25T06:14:32.563968", "MEAN_MOTION": 1.0027015, "ECCENTRICITY": 0.00018833, "INCLINATION": 0.0572, "RA_OF_ASC_NODE": 305.6336, "ARG_OF_PERICENTER": 323.875, "MEAN_ANOMALY": 283.131, "EPHEMERIS_TYPE": 0, "CLASSIFICATION_TYPE": "U", "NORAD_CAT_ID": 38652, "ELEMENT_SET_NO": 999, "REV_AT_EPOCH": 4271, "BSTAR": 0, "MEAN_MOTION_DOT": 5.5e-07, "MEAN_MOTION_DDOT": 0}, "tle": {"line1": "1 38652U 12036A   25359.26009912  .00000055  00000+0  00000+0 0  9997", "line2": "2 38652   0.0572 305.6336 0001883 323.8750 283.1310  1.00270150 42712"}}, "geometry": {"type": "Point", "coordinates": [50.26383748337693, 0.06423805066189665]}}, {"type": "Feature", "properties": {"norad_id": 38775, "name": "BEIDOU-2 M6 (C14)", "group": "gnss", "lat": -36.63882296002735, "lon": 39.04183188271362, "alt_km": 21504.55376204442, "timestamp": "2025-12-25T20:42:38.932139+00:00", "meta": {"OBJECT_NAME": "BEIDOU-2 M6 (C14)", "OBJECT_ID": "2012-050B", "EPOCH": "2025-12-24T07:41:05.368128", "MEAN_MOTION": 1.86230801, "ECCENTRICITY": 0.00114872, "INCLINATION": 56.388, "RA_OF_ASC_NODE": 68.6832, "ARG_OF_PERICENTER": 343.1884, "MEAN_ANOMALY": 16.8281, "EPHEMERIS_TYPE": 0, "CLASSIFICATION_TYPE": "U", "NORAD_CAT_ID": 38775, "ELEMENT_SET_NO": 999, "REV_AT_EPOCH": 9005, "BSTAR": 0, "MEAN_MOTION_DOT": -2.4e-07, "MEAN_MOTION_DDOT": 0}, "tle": {"line1": "1 38775U 12050B   25358.32020102 -.00000024  00000+0  00000+0 0  9996", "line2": "2 38775  56.3880  68.6832 0011487 343.1884  16.8281  1.86230801 90056"}}, "geometry": {"type": "Point", "coordinates": [39.04183188271362, -36.63882296002735]}}]}